[{"OBJECT_NAME":"STARLINK-5061","OBJECT_ID":"2022-177AD","EPOCH":"2026-03-09T11:09:52.793568","MEAN_MOTION":15.02532329,"ECCENTRICITY":0.00012767,"INCLINATION":43.004,"RA_OF_ASC_NODE":108.3577,"ARG_OF_PERICENTER":269.0356,"MEAN_ANOMALY":91.034,"EPHEMERIS_TYPE":0,"CLASSIFICATION_TYPE":"U","NORAD_CAT_ID":54847,"ELEMENT_SET_NO":999,"REV_AT_EPOCH":17722,"BSTAR":-6.0750129e-5,"MEAN_MOTION_DOT":-1.024e-5,"MEAN_MOTION_DDOT":0},{"OBJECT_NAME":"CZ-4B DEB","OBJECT_ID":"1999-057P","EPOCH":"2026-03-09T10:31:29.691840","MEAN_MOTION":14.91091708,"ECCENTRICITY":0.00558084,"INCLINATION":98.442,"RA_OF_ASC_NODE":235.9963,"ARG_OF_PERICENTER":58.1221,"MEAN_ANOMALY":355.8675,"EPHEMERIS_TYPE":0,"CLASSIFICATION_TYPE":"U","NORAD_CAT_ID":26127,"ELEMENT_SET_NO":999,"REV_AT_EPOCH":36984,"BSTAR":0.001630359,"MEAN_MOTION_DOT":0.00016608,"MEAN_MOTION_DDOT":0}]
